{
  "type": "FeatureCollection",
  "features": [
    {
      "type": "Feature",
      "properties": {
        "norad_id": 36744,
        "name": "COMS 1",
        "group": "weather",
        "lat": 3.526143436645467,
        "lon": 132.09774835983404,
        "alt_km": 35790.1074943018,
        "timestamp": "2025-12-10T18:56:59.704800+00:00",
        "meta_object_name": "COMS 1",
        "meta_object_id": "2010-032A",
        "meta_epoch": "2025-12-10T10:13:51.537216",
        "meta_mean_motion": 1.00270682,
        "meta_eccentricity": 0.0001104,
        "meta_inclination": 4.336,
        "meta_ra_of_asc_node": 78.0218,
        "meta_arg_of_pericenter": 206.2319,
        "meta_mean_anomaly": 76.7867,
        "meta_ephemeris_type": 0,
        "meta_classification_type": "U",
        "meta_norad_cat_id": 36744,
        "meta_element_set_no": 999,
        "meta_rev_at_epoch": 4919,
        "meta_bstar": 0,
        "meta_mean_motion_dot": -3.41e-06,
        "meta_mean_motion_ddot": 0,
        "tle_line1": "1 36744U 10032A   25344.42629094 -.00000341  00000+0  00000+0 0  9991",
        "tle_line2": "2 36744   4.3360  78.0218 0001104 206.2319  76.7867  1.00270682 49197"
      },
      "geometry": {
        "type": "Point",
        "coordinates": [
          132.09774835983404,
          3.526143436645467
        ]
      }
    },
    {
      "type": "Feature",
      "properties": {
        "norad_id": 37214,
        "name": "FENGYUN 3B",
        "group": "weather",
        "lat": -7.66553711334538,
        "lon": -156.4681485440705,
        "alt_km": 862.845436700788,
        "timestamp": "2025-12-10T18:56:59.704811+00:00",
        "meta_object_name": "FENGYUN 3B",
        "meta_object_id": "2010-059A",
        "meta_epoch": "2025-12-10T13:42:30.252672",
        "meta_mean_motion": 14.14789255,
        "meta_eccentricity": 0.0022182,
        "meta_inclination": 98.9904,
        "meta_ra_of_asc_node": 24.5329,
        "meta_arg_of_pericenter": 3.9155,
        "meta_mean_anomaly": 152.0204,
        "meta_ephemeris_type": 0,
        "meta_classification_type": "U",
        "meta_norad_cat_id": 37214,
        "meta_element_set_no": 999,
        "meta_rev_at_epoch": 78075,
        "meta_bstar": 0.00024147,
        "meta_mean_motion_dot": 4.21e-06,
        "meta_mean_motion_ddot": 0,
        "tle_line1": "1 37214U 10059A   25344.57118348  .00000421  00000+0  24147-3 0  9994",
        "tle_line2": "2 37214  98.9904  24.5329 0022182   3.9155 152.0204 14.14789255780758"
      },
      "geometry": {
        "type": "Point",
        "coordinates": [
          -156.4681485440705,
          -7.66553711334538
        ]
      }
    },
    {
      "type": "Feature",
      "properties": {
        "norad_id": 37849,
        "name": "SUOMI NPP",
        "group": "weather",
        "lat": -4.71315568171763,
        "lon": -77.12150074102044,
        "alt_km": 831.4645462455373,
        "timestamp": "2025-12-10T18:56:59.704823+00:00",
        "meta_object_name": "SUOMI NPP",
        "meta_object_id": "2011-061A",
        "meta_epoch": "2025-12-10T10:30:50.308128",
        "meta_mean_motion": 14.1951317,
        "meta_eccentricity": 0.000217,
        "meta_inclination": 98.7771,
        "meta_ra_of_asc_node": 281.8004,
        "meta_arg_of_pericenter": 124.2216,
        "meta_mean_anomaly": 235.9166,
        "meta_ephemeris_type": 0,
        "meta_classification_type": "U",
        "meta_norad_cat_id": 37849,
        "meta_element_set_no": 999,
        "meta_rev_at_epoch": 73166,
        "meta_bstar": 0.00011323,
        "meta_mean_motion_dot": 1.94e-06,
        "meta_mean_motion_ddot": 0,
        "tle_line1": "1 37849U 11061A   25344.43808227  .00000194  00000+0  11323-3 0  9998",
        "tle_line2": "2 37849  98.7771 281.8004 0002170 124.2216 235.9166 14.19513170731660"
      },
      "geometry": {
        "type": "Point",
        "coordinates": [
          -77.12150074102044,
          -4.71315568171763
        ]
      }
    },
    {
      "type": "Feature",
      "properties": {
        "norad_id": 38552,
        "name": "METEOSAT-10 (MSG-3)",
        "group": "weather",
        "lat": -3.5595505389178914,
        "lon": 4.245018454240705,
        "alt_km": 35784.11487793505,
        "timestamp": "2025-12-10T18:56:59.704834+00:00",
        "meta_object_name": "METEOSAT-10 (MSG-3)",
        "meta_object_id": "2012-035B",
        "meta_epoch": "2025-12-09T20:25:24.031776",
        "meta_mean_motion": 1.00274082,
        "meta_eccentricity": 8.515e-05,
        "meta_inclination": 4.2224,
        "meta_ra_of_asc_node": 61.7294,
        "meta_arg_of_pericenter": 241.822,
        "meta_mean_anomaly": 81.7823,
        "meta_ephemeris_type": 0,
        "meta_classification_type": "U",
        "meta_norad_cat_id": 38552,
        "meta_element_set_no": 999,
        "meta_rev_at_epoch": 4895,
        "meta_bstar": 0,
        "meta_mean_motion_dot": -4e-08,
        "meta_mean_motion_ddot": 0,
        "tle_line1": "1 38552U 12035B   25343.85097259 -.00000004  00000+0  00000+0 0  9999",
        "tle_line2": "2 38552   4.2224  61.7294 0000851 241.8220  81.7823  1.00274082 48950"
      },
      "geometry": {
        "type": "Point",
        "coordinates": [
          4.245018454240705,
          -3.5595505389178914
        ]
      }
    },
    {
      "type": "Feature",
      "properties": {
        "norad_id": 38771,
        "name": "METOP-B",
        "group": "weather",
        "lat": -14.307795564890517,
        "lon": -147.45151212105944,
        "alt_km": 823.7783076003316,
        "timestamp": "2025-12-10T18:56:59.704846+00:00",
        "meta_object_name": "METOP-B",
        "meta_object_id": "2012-049A",
        "meta_epoch": "2025-12-10T09:35:29.208768",
        "meta_mean_motion": 14.21407015,
        "meta_eccentricity": 0.0002814,
        "meta_inclination": 98.6803,
        "meta_ra_of_asc_node": 34.3981,
        "meta_arg_of_pericenter": 149.1513,
        "meta_mean_anomaly": 210.983,
        "meta_ephemeris_type": 0,
        "meta_classification_type": "U",
        "meta_norad_cat_id": 38771,
        "meta_element_set_no": 999,
        "meta_rev_at_epoch": 68644,
        "meta_bstar": 0.00011904,
        "meta_mean_motion_dot": 2.16e-06,
        "meta_mean_motion_ddot": 0,
        "tle_line1": "1 38771U 12049A   25344.39964362  .00000216  00000+0  11904-3 0  9998",
        "tle_line2": "2 38771  98.6803  34.3981 0002814 149.1513 210.9830 14.21407015686445"
      },
      "geometry": {
        "type": "Point",
        "coordinates": [
          -147.45151212105944,
          -14.307795564890517
        ]
      }
    },
    {
      "type": "Feature",
      "properties": {
        "norad_id": 39216,
        "name": "INSAT-3D",
        "group": "weather",
        "lat": 1.0884182683587642,
        "lon": 133.52462470757357,
        "alt_km": 35789.05570733819,
        "timestamp": "2025-12-10T18:56:59.704857+00:00",
        "meta_object_name": "INSAT-3D",
        "meta_object_id": "2013-038B",
        "meta_epoch": "2025-12-10T05:30:26.805024",
        "meta_mean_motion": 1.00270959,
        "meta_eccentricity": 0.0001606,
        "meta_inclination": 1.4387,
        "meta_ra_of_asc_node": 85.0161,
        "meta_arg_of_pericenter": 162.7742,
        "meta_mean_anomaly": 43.5747,
        "meta_ephemeris_type": 0,
        "meta_classification_type": "U",
        "meta_norad_cat_id": 39216,
        "meta_element_set_no": 999,
        "meta_rev_at_epoch": 4518,
        "meta_bstar": 0,
        "meta_mean_motion_dot": -3.35e-06,
        "meta_mean_motion_ddot": 0,
        "tle_line1": "1 39216U 13038B   25344.22947691 -.00000335  00000+0  00000+0 0  9994",
        "tle_line2": "2 39216   1.4387  85.0161 0001606 162.7742  43.5747  1.00270959 45180"
      },
      "geometry": {
        "type": "Point",
        "coordinates": [
          133.52462470757357,
          1.0884182683587642
        ]
      }
    },
    {
      "type": "Feature",
      "properties": {
        "norad_id": 39260,
        "name": "FENGYUN 3C",
        "group": "weather",
        "lat": 57.663824817016405,
        "lon": 156.18840310020724,
        "alt_km": 832.6811530738169,
        "timestamp": "2025-12-10T18:56:59.704868+00:00",
        "meta_object_name": "FENGYUN 3C",
        "meta_object_id": "2013-052A",
        "meta_epoch": "2025-12-10T11:35:35.139840",
        "meta_mean_motion": 14.15695217,
        "meta_eccentricity": 0.0014158,
        "meta_inclination": 98.4761,
        "meta_ra_of_asc_node": 322.2726,
        "meta_arg_of_pericenter": 202.7278,
        "meta_mean_anomaly": 157.3272,
        "meta_ephemeris_type": 0,
        "meta_classification_type": "U",
        "meta_norad_cat_id": 39260,
        "meta_element_set_no": 999,
        "meta_rev_at_epoch": 63186,
        "meta_bstar": 0.00012391,
        "meta_mean_motion_dot": 2.02e-06,
        "meta_mean_motion_ddot": 0,
        "tle_line1": "1 39260U 13052A   25344.48304560  .00000202  00000+0  12391-3 0  9991",
        "tle_line2": "2 39260  98.4761 322.2726 0014158 202.7278 157.3272 14.15695217631860"
      },
      "geometry": {
        "type": "Point",
        "coordinates": [
          156.18840310020724,
          57.663824817016405
        ]
      }
    }
  ]
}